ORBCOMM FM33            
1 25983U 99065D   25140.48016687  .00000769  00000+0  28701-3 0  9990
2 25983  45.0272 130.6798 0010569 285.2236  74.7444 14.39945359332079
ORBCOMM FM34            
1 25986U 99065G   25140.68285452  .00000678  00000+0  27378-3 0  9991
2 25986  45.0383 226.5244 0005693 216.4678 143.5783 14.37072663330946
ORBCOMM FM38            
1 33060U 08031A   25140.89301399  .00001841  00000+0  26113-3 0  9997
2 33060  48.4395  85.3097 0005480 282.9529  77.0775 14.81222736910709
ORBCOMM FM29            
1 33062U 08031C   25141.16807454  .00001767  00000+0  25354-3 0  9996
2 33062  48.4378  99.5272 0006412 269.1601 215.9434 14.80909388910538
ORBCOMM FM39            
1 33063U 08031D   25140.67631839  .00001376  00000+0  21026-3 0  9992
2 33063  48.4395 125.8419 0007196 241.3330 118.6862 14.79473307909723
